259P/Garradd,e,15.8902,51.4519,257.6311,2.730174,0.2184835,0.33856631,302.4538,05/21.0/2021,2000,g 15.5,4.0
# From MPEC 2020-SI8
260P/McNaught,e,15.0564,349.3395,18.4089,3.622801,0.1429346,0.60910821,88.4615,05/21.0/2021,2000,g 13.5,4.0
# From MPEC 2021-J28
261P/Larson,e,6.0753,291.1593,67.1534,3.490141,0.1511610,0.42319537,106.1258,05/21.0/2021,2000,g 14.0,4.0
# From MPC 82322
262P/McNaught-Russell,e,29.2134,217.8862,171.0106,6.874683,0.0546796,0.81558636,169.1156,05/21.0/2021,2000,g 13.5,4.0
# From MPC 89018
263P/Gibbs,e,11.5360,105.7333,34.5641,3.050208,0.1850163,0.59210074,245.2913,05/21.0/2021,2000,g  9.0,4.0
# From MPC114608
264P/Larsen,e,25.1413,220.6743,346.7295,3.895469,0.1281931,0.37484769,83.9811,05/21.0/2021,2000,g 13.0,4.0
# From MPC 79870
265P/LINEAR,e,14.3650,342.9271,33.4278,4.251456,0.1124340,0.64741519,11.3504,05/21.0/2021,2000,g 14.5,4.0
# From MPEC 2021-F20
266P/Christensen,e,3.4268,4.9966,97.7952,3.534345,0.1483340,0.33944021,58.8379,05/21.0/2021,2000,g 14.7,4.0
# From MPC114608
267P/LONEOS,e,6.1386,228.6254,114.1389,3.211876,0.1712245,0.61426114,176.8845,05/21.0/2021,2000,g 19.5,4.0
# From MPC 92277
268P/Bernardi,e,16.1444,127.5828,359.9212,4.544744,0.1017279,0.47446938,225.6889,05/21.0/2021,2000,g 14.0,4.0
# From MPC104795
269P/Jedicke,e,7.0724,241.7087,225.8744,7.077124,0.0523503,0.43045060,126.9812,05/21.0/2021,2000,g 10.0,4.0
# From MPC 88332
270P/Gehrels,e,2.9196,222.9783,209.8370,6.665982,0.0572674,0.46743405,166.3667,05/21.0/2021,2000,g  8.0,4.0
# From MPC 92277
271P/van Houten-Lemmon,e,6.8697,9.3076,36.4029,7.043822,0.0527220,0.39414556,151.3326,05/21.0/2021,2000,g 11.0,4.0
# From MPC 81862
272P/NEAT,e,18.0761,109.4671,27.9405,4.456650,0.1047590,0.45431662,315.7698,05/21.0/2021,2000,g 16.0,2.0
# From MPC 82723
273P/Pons-Gambart,e,136.7939,320.4011,20.3267,31.81970,0.0054911,0.97410387,0.0000,12/18.1792/2012,2000,g 11.5,4.0
# From MPC 88332
274P/Tombaugh-Tenagra,e,15.8173,81.3392,38.4889,4.372700,0.1077903,0.43899978,325.2321,05/21.0/2021,2000,g 13.0,4.0
# From MPC 81862
275P/Hermann,e,21.2750,348.7572,174.0661,5.772884,0.0710583,0.71238910,218.4529,05/21.0/2021,2000,g 17.0,4.0
# From MPEC 2020-K19
276P/Vorobjov,e,14.8117,211.3984,199.7320,5.317227,0.0803852,0.26723332,255.1249,05/21.0/2021,2000,g 11.5,4.0
# From MPEC 2021-F20
277P/LINEAR,e,16.7781,276.3447,152.3159,3.853016,0.1303176,0.50572290,18.4827,05/21.0/2021,2000,g 15.1,4.0
# From MPEC 2020-W26
278P/McNaught,e,6.6871,15.4060,238.0854,3.696157,0.1387007,0.43554867,34.8119,05/21.0/2021,2000,g 14.0,4.0
# From MPC100285
279P/La Sagra,e,5.0524,346.2324,5.7886,3.574295,0.1458540,0.39846027,258.1083,05/21.0/2021,2000,g 14.0,4.0
# From MPC 89013
280P/Larsen,e,11.7753,131.3927,104.7939,4.529419,0.1022446,0.41765374,277.6307,05/21.0/2021,2000,g 12.5,4.0
# From MPC 83145
281P/MOSS,e,4.7196,87.1766,26.7527,4.871666,0.0916617,0.17186098,302.9460,05/21.0/2021,2000,g 11.0,4.0
# From MPC134066
282P/,e,5.8112,9.2949,217.6118,4.242330,0.1127970,0.18888237,342.3469,05/21.0/2021,2000,g 13.5,2.0
# From MPEC 2021-BE3
283P/Spacewatch,e,14.4548,161.1290,22.2535,4.139590,0.1170221,0.48492999,347.1246,05/21.0/2021,2000,g 16.0,2.0
# From MPEC 2020-K19
284P/McNaught,e,11.8609,144.2631,202.4948,3.680151,0.1396065,0.37623282,343.9665,05/21.0/2021,2000,g 13.0,4.0
# From MPC 85339
285P/LINEAR,e,25.0361,185.5001,178.4172,4.508192,0.1029676,0.61837767,298.0690,05/21.0/2021,2000,g 15.0,4.0
# From MPEC 2021-J28
286P/Christensen,e,17.0451,283.9588,24.8301,4.109296,0.1183186,0.42534687,317.8083,05/21.0/2021,2000,g 14.0,4.0
# From MPC 96868
287P/Christensen,e,16.3199,139.0451,188.9283,4.165632,0.1159265,0.27091633,270.2482,05/21.0/2021,2000,g 13.5,4.0
# From MPC134066
288P/,e,3.2392,83.1856,280.5053,3.050022,0.1850332,0.20143596,307.0941,05/21.0/2021,2000,g 16.0,2.0
# From MPEC 2021-F20
289P/Blanpain,e,5.8947,68.8855,9.8647,3.046987,0.1853097,0.68543266,95.8124,05/21.0/2021,2000,g 19.0,4.0
# From MPC 95214
290P/Jager,e,20.1821,302.6904,181.9610,6.204953,0.0637671,0.63026239,169.6195,05/21.0/2021,2000,g 10.5,4.0
# From MPC 89314
291P/NEAT,e,6.3080,238.0608,173.7933,4.523320,0.1024515,0.43559521,286.7510,05/21.0/2021,2000,g 13.0,4.0
# From MPC115887
292P/Li,e,24.2607,90.9807,319.4558,6.107369,0.0653015,0.58828897,174.1912,05/21.0/2021,2000,g 12.5,4.0
# From MPEC 2021-J28
293P/Spacewatch,e,9.0564,78.4085,41.0490,3.643965,0.1416912,0.41827810,21.6445,05/21.0/2021,2000,g 14.5,4.0
# From MPEC 2020-SI8
294P/LINEAR,e,18.2231,312.5857,235.3937,3.203609,0.1718877,0.59637896,92.3854,05/21.0/2021,2000,g 15.5,4.0
# From MPC 93589
295P/LINEAR,e,21.0736,7.4250,72.9045,5.306505,0.0806290,0.61615201,207.4960,05/21.0/2021,2000,g 12.0,4.0
# From MPEC 2020-SI8
296P/Garradd,e,25.2287,263.6223,350.1070,3.497530,0.1506822,0.47878323,36.9364,05/21.0/2021,2000,g 14.0,4.0
# From MPC102956
297P/Beshore,e,10.3284,97.6599,132.5168,3.442480,0.1543110,0.31925210,18.2212,05/21.0/2021,2000,g 15.0,4.0
# From MPC114609
298P/Christensen,e,7.8706,52.8220,100.6767,3.591802,0.1447890,0.38662732,37.1650,05/21.0/2021,2000,g 15.0,4.0
# From MPC101100
299P/Catalina-PANSTARRS,e,10.4745,271.6255,323.8874,4.385196,0.1073299,0.28148746,244.5253,05/21.0/2021,2000,g 11.5,4.0
# From MPC114609
300P/Catalina,e,5.6752,95.6587,222.8904,2.699982,0.2221585,0.69178355,206.7209,05/21.0/2021,2000,g 16.0,4.0
# From MPC 89014
301P/LINEAR-NEAT,e,10.3406,351.1760,193.6973,5.738807,0.0716921,0.58528444,176.2236,05/21.0/2021,2000,g 13.0,4.0
# From MPEC 2020-HN5
302P/Lemmon-PANSTARRS,e,6.0342,121.7547,208.2480,4.276190,0.1114599,0.23014116,205.4894,05/21.0/2021,2000,g 12.5,4.0
# From MPC 92278
303P/NEAT,e,7.0209,347.9711,356.8847,5.047487,0.0869143,0.51061645,209.2350,05/21.0/2021,2000,g 13.5,4.0
# From MPEC 2020-N08
304P/Ory,e,2.6067,58.9314,335.2334,3.150535,0.1762494,0.60053093,49.6284,05/21.0/2021,2000,g 16.5,4.0
# From MPC101100
305P/Skiff,e,11.6498,240.1163,147.2886,4.643901,0.0984872,0.69327633,234.2716,05/21.0/2021,2000,g 18.0,4.0
# From MPC 92278
306P/LINEAR,e,8.3111,341.3743,0.8398,3.123023,0.1785835,0.59331033,86.4470,05/21.0/2021,2000,g 19.0,4.0
# From MPC 92278
307P/LINEAR,e,4.4342,158.1527,222.1315,5.792872,0.0706908,0.67470060,165.6145,05/21.0/2021,2000,g 15.0,4.0
# From MPC109148
308P/Lagerkvist-Carsenty,e,4.8508,63.0833,333.5913,6.604181,0.0580732,0.36340964,128.1501,05/21.0/2021,2000,g 13.0,2.0
# From MPC 94284
309P/LINEAR,e,17.0233,10.1416,49.9560,4.371741,0.1078258,0.61767764,247.4592,05/21.0/2021,2000,g 15.0,4.0
# From MPC 98566
310P/Hill,e,13.1278,8.9246,31.8248,4.178450,0.1153935,0.42185353,257.6758,05/21.0/2021,2000,g 13.5,4.0
# From MPEC 2021-BE3
311P/PANSTARRS,e,4.9696,279.2263,144.5842,2.188865,0.3043516,0.11551297,68.6488,05/21.0/2021,2000,g 17.0,4.0
# From MPEC 2021-BE3
312P/NEAT,e,19.7684,144.6693,207.5471,3.466518,0.1527088,0.42783878,36.3403,05/21.0/2021,2000,g 16.0,4.0
# From MPEC 2021-BE3
313P/Gibbs,e,10.9828,105.9736,254.6892,3.162481,0.1752517,0.23499506,70.1940,05/21.0/2021,2000,g 15.0,4.0
# From MPC105243
314P/Montani,e,3.9801,267.6141,214.1322,7.269477,0.0502863,0.41602267,84.7854,05/21.0/2021,2000,g  9.5,4.0
# From MPC115888
315P/LONEOS,e,17.7620,68.9308,65.6989,4.939254,0.0897867,0.52148181,146.7327,05/21.0/2021,2000,g 11.0,4.0
# From MPC 92279
316P/LONEOS-Christensen,e,9.8468,246.6417,193.3318,4.361170,0.1082180,0.15745536,221.6439,05/21.0/2021,2000,g 13.5,4.0
# From MPEC 2020-C98
317P/WISE,e,11.9498,275.5097,334.8904,2.964732,0.1930750,0.57049367,45.7267,05/21.0/2021,2000,g 17.5,4.0
# From MPC102103
318P/McNaught-Hartley,e,17.8776,35.5893,313.1743,7.498288,0.0480022,0.67521899,97.6983,05/21.0/2021,2000,g  8.5,6.0
# From MPC 97499
319P/Catalina-McNaught,e,15.0949,111.3750,203.6542,3.567364,0.1462793,0.66661752,314.0062,05/21.0/2021,2000,g 15.0,4.0
# From MPC 96281
320P/McNaught,e,4.9089,295.9292,0.7729,3.093483,0.1811476,0.68570637,22.4374,05/21.0/2021,2000,g 20.5,4.0
# From MPC105243
321P/SOHO,e,20.0767,165.0240,172.7399,2.423401,0.2612560,0.98110334,0.0000,01/17.3124/2020,2000,g 20.0,4.0
# From MPC102103
322P/SOHO,e,11.4646,351.5030,56.8970,2.507998,0.2481494,0.97981415,0.0000,08/31.4373/2019,2000,g 19.0,4.0
# From MPEC 2016-Y36
323P/SOHO,e,5.3386,324.3753,353.0540,2.582325,0.2375132,0.98484265,0.0000,01/17.7627/2021,2000,g 20.0,4.0
# From MPC108598
324P/La Sagra,e,21.4043,270.6179,57.6678,3.097290,0.1808137,0.15455344,2.7270,05/21.0/2021,2000,g 13.0,4.0
# From MPC114609
325P/Yang-Gao,e,16.6948,257.5695,343.6899,3.523842,0.1489977,0.59354044,313.4901,05/21.0/2021,2000,g 14.0,4.0
# From MPC103849
326P/Hill,e,2.4708,99.8118,278.5918,4.063563,0.1203216,0.31769592,245.2368,05/21.0/2021,2000,g 13.5,4.0
# From MPC 97499
327P/Van Ness,e,36.2500,173.9816,185.0342,3.562254,0.1465942,0.56302403,291.1773,05/21.0/2021,2000,g 16.0,4.0
# From MPC109148
328P/LONEOS-Tucker,e,17.6723,341.6319,30.4862,4.194680,0.1147244,0.55210295,226.4398,05/21.0/2021,2000,g 14.5,4.0
# From MPC101101
329P/LINEAR-Catalina,e,21.6717,87.6762,343.5326,5.191534,0.0833222,0.67713493,166.5764,05/21.0/2021,2000,g 13.5,4.0
# From MPC105243
330P/Catalina,e,15.6946,293.0952,188.9620,6.629297,0.0577435,0.54834213,99.8222,05/21.0/2021,2000,g 12.0,4.0
# From MPEC 2021-BE3
331P/Gibbs,e,9.7384,216.7744,183.9087,3.004232,0.1892797,0.04092620,44.0242,05/21.0/2021,2000,g 12.0,4.0
# From MPEC 2016-K18
332P/Ikeya-Murakami,e,9.3799,3.7872,152.3429,3.089271,0.1815181,0.48948481,343.7683,05/21.0/2021,2000,g 18.0,4.0
# From MPEC 2016-EI8
332P-B/Ikeya-Murakami,e,9.3805,3.8028,152.3711,3.082329,0.1821317,0.48970701,359.9699,03/17.0/2016,2000,g 19.0,4.0
# From MPEC 2016-K18
332P-C/Ikeya-Murakami,e,9.3789,3.7877,152.3342,3.089237,0.1815211,0.48949026,343.7821,05/21.0/2021,2000,g 16.5,4.0
# From MPEC 2016-ED0
332P-D/Ikeya-Murakami,e,9.3761,3.7923,152.4393,3.081138,0.1822373,0.48977814,359.9486,03/17.0/2016,2000,g 19.0,4.0
# From MPEC 2016-ED0
332P-E/Ikeya-Murakami,e,9.3774,3.8228,152.2825,3.079877,0.1823493,0.48922008,359.9889,03/17.0/2016,2000,g 21.0,4.0
# From MPEC 2016-ED0
